{"type": "FeatureCollection", "features": [ {"type": "Feature", "properties": {"norad_id": 30386, "name": "FENGYUN 1C DEB", "group": "fengyun-1c-debris", "lat": 42.887345696304685, "lon": -129.9984779859474, "alt_km": 1168.3252330444402, "timestamp": "2025-12-08T08:59:01.041820+00:00", "meta": {"OBJECT_NAME": "FENGYUN 1C DEB", "OBJECT_ID": "1999-025ACZ", "EPOCH": "2025-12-06T16:18:21.226176", "MEAN_MOTION": 13.55547259, "ECCENTRICITY": 0.0303536, "INCLINATION": 98.6905, "RA_OF_ASC_NODE": 236.6725, "ARG_OF_PERICENTER": 171.5959, "MEAN_ANOMALY": 248.2056, "EPHEMERIS_TYPE": 0, "CLASSIFICATION_TYPE": "U", "NORAD_CAT_ID": 30386, "ELEMENT_SET_NO": 999, "REV_AT_EPOCH": 92747, "BSTAR": 0.0021754243, "MEAN_MOTION_DOT": 1.996e-05, "MEAN_MOTION_DDOT": 0}, "tle": {"line1": "1 30386U 99025ACZ 25340.67941234  .00001996  00000+0  21754-2 0  9990", "line2": "2 30386  98.6905 236.6725 0303536 171.5959 248.2056 13.55547259927479"}}, "geometry": {"type": "Point", "coordinates": [-129.9984779859474, 42.887345696304685]}}, {"type": "Feature", "properties": {"norad_id": 30387, "name": "FENGYUN 1C DEB", "group": "fengyun-1c-debris", "lat": -65.27467171676548, "lon": 16.893669828665363, "alt_km": 850.1621100767652, "timestamp": "2025-12-08T08:59:01.041831+00:00", "meta": {"OBJECT_NAME": "FENGYUN 1C DEB", "OBJECT_ID": "1999-025ADA", "EPOCH": "2025-12-07T07:55:06.531744", "MEAN_MOTION": 14.15044542, "ECCENTRICITY": 0.000118, "INCLINATION": 98.6568, "RA_OF_ASC_NODE": 356.5607, "ARG_OF_PERICENTER": 98.6253, "MEAN_ANOMALY": 277.419, "EPHEMERIS_TYPE": 0, "CLASSIFICATION_TYPE": "U", "NORAD_CAT_ID": 30387, "ELEMENT_SET_NO": 999, "REV_AT_EPOCH": 97248, "BSTAR": 0.00043832819, "MEAN_MOTION_DOT": 8.06e-06, "MEAN_MOTION_DDOT": 0}, "tle": {"line1": "1 30387U 99025ADA 25341.32993671  .00000806  00000+0  43833-3 0  9998", "line2": "2 30387  98.6568 356.5607 0001180  98.6253 277.4190 14.15044542972480"}}, "geometry": {"type": "Point", "coordinates": [16.893669828665363, -65.27467171676548]}}, {"type": "Feature", "properties": {"norad_id": 30388, "name": "FENGYUN 1C DEB", "group": "fengyun-1c-debris", "lat": 43.70883349793393, "lon": -168.52112786175724, "alt_km": 740.2278627599526, "timestamp": "2025-12-08T08:59:01.041842+00:00", "meta": {"OBJECT_NAME": "FENGYUN 1C DEB", "OBJECT_ID": "1999-025ADB", "EPOCH": "2025-12-07T19:38:33.550368", "MEAN_MOTION": 14.19752937, "ECCENTRICITY": 0.02222833, "INCLINATION": 98.5992, "RA_OF_ASC_NODE": 2.6216, "ARG_OF_PERICENTER": 76.9887, "MEAN_ANOMALY": 96.8776, "EPHEMERIS_TYPE": 0, "CLASSIFICATION_TYPE": "U", "NORAD_CAT_ID": 30388, "ELEMENT_SET_NO": 999, "REV_AT_EPOCH": 97362, "BSTAR": 0.00081379881, "MEAN_MOTION_DOT": 2.163e-05, "MEAN_MOTION_DDOT": 0}, "tle": {"line1": "1 30388U 99025ADB 25341.81844387  .00002163  00000+0  81380-3 0  9999", "line2": "2 30388  98.5992   2.6216 0222283  76.9887  96.8776 14.19752937973625"}}, "geometry": {"type": "Point", "coordinates": [-168.52112786175724, 43.70883349793393]}}, {"type": "Feature", "properties": {"norad_id": 30389, "name": "FENGYUN 1C DEB", "group": "fengyun-1c-debris", "lat": 21.680726139715073, "lon": -113.00885304506579, "alt_km": 742.5403452509563, "timestamp": "2025-12-08T08:59:01.041852+00:00", "meta": {"OBJECT_NAME": "FENGYUN 1C DEB", "OBJECT_ID": "1999-025ADC", "EPOCH": "2025-12-07T19:31:07.859424", "MEAN_MOTION": 14.43940324, "ECCENTRICITY": 0.00140298, "INCLINATION": 98.838, "RA_OF_ASC_NODE": 62.8624, "ARG_OF_PERICENTER": 234.1508, "MEAN_ANOMALY": 249.2521, "EPHEMERIS_TYPE": 0, "CLASSIFICATION_TYPE": "U", "NORAD_CAT_ID": 30389, "ELEMENT_SET_NO": 999, "REV_AT_EPOCH": 97715, "BSTAR": 0.0040064815, "MEAN_MOTION_DOT": 0.00013673, "MEAN_MOTION_DDOT": 0}, "tle": {"line1": "1 30389U 99025ADC 25341.81328541  .00013673  00000+0  40065-2 0  9991", "line2": "2 30389  98.8380  62.8624 0014029 234.1508 249.2521 14.43940324977156"}}, "geometry": {"type": "Point", "coordinates": [-113.00885304506579, 21.680726139715073]}}, {"type": "Feature", "properties": {"norad_id": 30390, "name": "FENGYUN 1C DEB", "group": "fengyun-1c-debris", "lat": -44.86915781329532, "lon": -123.36970513231819, "alt_km": 766.8971587831475, "timestamp": "2025-12-08T08:59:01.041862+00:00", "meta": {"OBJECT_NAME": "FENGYUN 1C DEB", "OBJECT_ID": "1999-025ADD", "EPOCH": "2025-12-07T19:04:59.681280", "MEAN_MOTION": 14.2966148, "ECCENTRICITY": 0.00681615, "INCLINATION": 98.8229, "RA_OF_ASC_NODE": 64.9379, "ARG_OF_PERICENTER": 178.7086, "MEAN_ANOMALY": 306.9308, "EPHEMERIS_TYPE": 0, "CLASSIFICATION_TYPE": "U", "NORAD_CAT_ID": 30390, "ELEMENT_SET_NO": 999, "REV_AT_EPOCH": 97313, "BSTAR": 0.0032679711, "MEAN_MOTION_DOT": 8.552e-05, "MEAN_MOTION_DDOT": 0}, "tle": {"line1": "1 30390U 99025ADD 25341.79513520  .00008552  00000+0  32680-2 0  9997", "line2": "2 30390  98.8229  64.9379 0068161 178.7086 306.9308 14.29661480973135"}}, "geometry": {"type": "Point", "coordinates": [-123.36970513231819, -44.86915781329532]}}, {"type": "Feature", "properties": {"norad_id": 30391, "name": "FENGYUN 1C DEB", "group": "fengyun-1c-debris", "lat": -8.840879893784027, "lon": 29.816330079621306, "alt_km": 829.8764423853272, "timestamp": "2025-12-08T08:59:01.041872+00:00", "meta": {"OBJECT_NAME": "FENGYUN 1C DEB", "OBJECT_ID": "1999-025ADE", "EPOCH": "2025-12-07T14:57:59.947200", "MEAN_MOTION": 14.16203699, "ECCENTRICITY": 0.00711748, "INCLINATION": 98.7809, "RA_OF_ASC_NODE": 27.6986, "ARG_OF_PERICENTER": 276.7831, "MEAN_ANOMALY": 208.3779, "EPHEMERIS_TYPE": 0, "CLASSIFICATION_TYPE": "U", "NORAD_CAT_ID": 30391, "ELEMENT_SET_NO": 999, "REV_AT_EPOCH": 96806, "BSTAR": 0.0018454534, "MEAN_MOTION_DOT": 3.702e-05, "MEAN_MOTION_DDOT": 0}, "tle": {"line1": "1 30391U 99025ADE 25341.62361050  .00003702  00000+0  18455-2 0  9995", "line2": "2 30391  98.7809  27.6986 0071174 276.7831 208.3779 14.16203699968067"}}, "geometry": {"type": "Point", "coordinates": [29.816330079621306, -8.840879893784027]}}, {"type": "Feature", "properties": {"norad_id": 30392, "name": "FENGYUN 1C DEB", "group": "fengyun-1c-debris", "lat": 58.52814642363398, "lon": -164.28812565624608, "alt_km": 907.6733452584376, "timestamp": "2025-12-08T08:59:01.041883+00:00", "meta": {"OBJECT_NAME": "FENGYUN 1C DEB", "OBJECT_ID": "1999-025ADF", "EPOCH": "2025-12-06T19:45:27.463392", "MEAN_MOTION": 14.07430034, "ECCENTRICITY": 0.0181328, "INCLINATION": 98.7859, "RA_OF_ASC_NODE": 359.5685, "ARG_OF_PERICENTER": 13.5588, "MEAN_ANOMALY": 170.1827, "EPHEMERIS_TYPE": 0, "CLASSIFICATION_TYPE": "U", "NORAD_CAT_ID": 30392, "ELEMENT_SET_NO": 999, "REV_AT_EPOCH": 96587, "BSTAR": 0.0011576088, "MEAN_MOTION_DOT": 2.221e-05, "MEAN_MOTION_DDOT": 0}, "tle": {"line1": "1 30392U 99025ADF 25340.82323453  .00002221  00000+0  11576-2 0  9994", "line2": "2 30392  98.7859 359.5685 0181328  13.5588 170.1827 14.07430034965876"}}, "geometry": {"type": "Point", "coordinates": [-164.28812565624608, 58.52814642363398]}}, {"type": "Feature", "properties": {"norad_id": 30393, "name": "FENGYUN 1C DEB", "group": "fengyun-1c-debris", "lat": -15.218685830815934, "lon": 42.6779937912096, "alt_km": 886.5277204607619, "timestamp": "2025-12-08T08:59:01.041893+00:00", "meta": {"OBJECT_NAME": "FENGYUN 1C DEB", "OBJECT_ID": "1999-025ADG", "EPOCH": "2025-12-07T21:52:57.284832", "MEAN_MOTION": 13.98978002, "ECCENTRICITY": 0.006952, "INCLINATION": 99.1647, "RA_OF_ASC_NODE": 39.6985, "ARG_OF_PERICENTER": 273.3463, "MEAN_ANOMALY": 262.3407, "EPHEMERIS_TYPE": 0, "CLASSIFICATION_TYPE": "U", "NORAD_CAT_ID": 30393, "ELEMENT_SET_NO": 999, "REV_AT_EPOCH": 96262, "BSTAR": 0.00042911282, "MEAN_MOTION_DOT": 5.87e-06, "MEAN_MOTION_DDOT": 0}, "tle": {"line1": "1 30393U 99025ADG 25341.91177413  .00000587  00000+0  42911-3 0  9990", "line2": "2 30393  99.1647  39.6985 0069520 273.3463 262.3407 13.98978002962622"}}, "geometry": {"type": "Point", "coordinates": [42.6779937912096, -15.218685830815934]}}, {"type": "Feature", "properties": {"norad_id": 30394, "name": "FENGYUN 1C DEB", "group": "fengyun-1c-debris", "lat": 2.5504035834601164, "lon": 10.110119717678753, "alt_km": 933.2988326136383, "timestamp": "2025-12-08T08:59:01.041904+00:00", "meta": {"OBJECT_NAME": "FENGYUN 1C DEB", "OBJECT_ID": "1999-025ADH", "EPOCH": "2025-12-07T20:03:10.478880", "MEAN_MOTION": 13.95781071, "ECCENTRICITY": 0.00899523, "INCLINATION": 99.4354, "RA_OF_ASC_NODE": 9.983, "ARG_OF_PERICENTER": 114.5675, "MEAN_ANOMALY": 63.2921, "EPHEMERIS_TYPE": 0, "CLASSIFICATION_TYPE": "U", "NORAD_CAT_ID": 30394, "ELEMENT_SET_NO": 999, "REV_AT_EPOCH": 96035, "BSTAR": 0.000637929, "MEAN_MOTION_DOT": 8.55e-06, "MEAN_MOTION_DDOT": 0}, "tle": {"line1": "1 30394U 99025ADH 25341.83553795  .00000855  00000+0  63793-3 0  9992", "line2": "2 30394  99.4354   9.9830 0089952 114.5675  63.2921 13.95781071960354"}}, "geometry": {"type": "Point", "coordinates": [10.110119717678753, 2.5504035834601164]}}, {"type": "Feature", "properties": {"norad_id": 30395, "name": "FENGYUN 1C DEB", "group": "fengyun-1c-debris", "lat": 37.39151548893018, "lon": -175.03602194078, "alt_km": 928.6833873735877, "timestamp": "2025-12-08T08:59:01.041914+00:00", "meta": {"OBJECT_NAME": "FENGYUN 1C DEB", "OBJECT_ID": "1999-025ADJ", "EPOCH": "2025-12-08T00:00:13.041216", "MEAN_MOTION": 13.96681327, "ECCENTRICITY": 0.01607131, "INCLINATION": 98.9308, "RA_OF_ASC_NODE": 357.6978, "ARG_OF_PERICENTER": 39.2073, "MEAN_ANOMALY": 20.6821, "EPHEMERIS_TYPE": 0, "CLASSIFICATION_TYPE": "U", "NORAD_CAT_ID": 30395, "ELEMENT_SET_NO": 999, "REV_AT_EPOCH": 95957, "BSTAR": 0.00076144981, "MEAN_MOTION_DOT": 1.135e-05, "MEAN_MOTION_DDOT": 0}, "tle": {"line1": "1 30395U 99025ADJ 25342.00015094  .00001135  00000+0  76145-3 0  9995", "line2": "2 30395  98.9308 357.6978 0160713  39.2073  20.6821 13.96681327959576"}}, "geometry": {"type": "Point", "coordinates": [-175.03602194078, 37.39151548893018]}}]}